[{"OBJECT_NAME":"STARLINK-34012","OBJECT_ID":"2025-098A","EPOCH":"2026-03-09T22:02:11.561568","MEAN_MOTION":14.98340978,"ECCENTRICITY":0.00026334,"INCLINATION":70.0001,"RA_OF_ASC_NODE":274.0023,"ARG_OF_PERICENTER":272.8125,"MEAN_ANOMALY":87.2733,"EPHEMERIS_TYPE":0,"CLASSIFICATION_TYPE":"U","NORAD_CAT_ID":63926,"ELEMENT_SET_NO":999,"REV_AT_EPOCH":4662,"BSTAR":0.00028214605,"MEAN_MOTION_DOT":3.276e-5,"MEAN_MOTION_DDOT":0},{"OBJECT_NAME":"COSMOS 2151","OBJECT_ID":"1991-042A","EPOCH":"2026-03-09T21:12:10.736640","MEAN_MOTION":15.00104908,"ECCENTRICITY":0.00139956,"INCLINATION":82.493,"RA_OF_ASC_NODE":83.4892,"ARG_OF_PERICENTER":63.3058,"MEAN_ANOMALY":296.9597,"EPHEMERIS_TYPE":0,"CLASSIFICATION_TYPE":"U","NORAD_CAT_ID":21422,"ELEMENT_SET_NO":999,"REV_AT_EPOCH":86322,"BSTAR":0.00015116122,"MEAN_MOTION_DOT":1.915e-5,"MEAN_MOTION_DDOT":0}]
